[{"OBJECT_NAME":"KUIPER-00149","OBJECT_ID":"2025-228X","EPOCH":"2026-03-09T21:19:04.016352","MEAN_MOTION":14.80004702,"ECCENTRICITY":0.00017534,"INCLINATION":51.9019,"RA_OF_ASC_NODE":337.2239,"ARG_OF_PERICENTER":84.5973,"MEAN_ANOMALY":275.5189,"EPHEMERIS_TYPE":0,"CLASSIFICATION_TYPE":"U","NORAD_CAT_ID":65968,"ELEMENT_SET_NO":999,"REV_AT_EPOCH":2357,"BSTAR":0.00078763897,"MEAN_MOTION_DOT":5.798e-5,"MEAN_MOTION_DDOT":0},{"OBJECT_NAME":"CZ-2D DEB","OBJECT_ID":"2008-056F","EPOCH":"2026-03-07T20:44:52.582272","MEAN_MOTION":14.56659355,"ECCENTRICITY":0.01074078,"INCLINATION":98.3078,"RA_OF_ASC_NODE":92.1289,"ARG_OF_PERICENTER":235.5528,"MEAN_ANOMALY":123.5484,"EPHEMERIS_TYPE":0,"CLASSIFICATION_TYPE":"U","NORAD_CAT_ID":35574,"ELEMENT_SET_NO":999,"REV_AT_EPOCH":90819,"BSTAR":0.00072833235,"MEAN_MOTION_DOT":3.464e-5,"MEAN_MOTION_DDOT":0}]
